NORAD_CAT_ID,OBJECT_NAME,OBJECT_TYPE,EPOCH,MEAN_MOTION,ECCENTRICITY,INCLINATION,RA_OF_ASC_NODE,ARG_OF_PERICENTER,MEAN_ANOMALY,BSTAR,MEAN_MOTION_DOT,MEAN_MOTION_DDOT,TLE_LINE0,TLE_LINE1,TLE_LINE2,SEMIMAJOR_AXIS,PERIOD,APOGEE,PERIGEE,DECAYED
53263.0,STARLINK-4130,PAYLOAD,2022-12-12 19:35:44,15.08842642,0.0001892,53.2177,104.2332,50.0564,310.0594,6.140300000000001e-05,6.89e-06,0.0,0 STARLINK-4130,1 53263U 22086X   22346.81648998  .00000689  00000-0  61403-4 0  9998,2 53263  53.2177 104.2332 0001892  50.0564 310.0594 15.08842642 22490,6917.871999999999,95.437,541.0459999999998,538.428,0.0
53263.0,STARLINK-4130,PAYLOAD,2022-12-13 08:18:49,15.08840602,0.0001647,53.2189,101.8513,58.72,301.3953,3.9786e-05,3.45e-06,0.0,0 STARLINK-4130,1 53263U 22086X   22347.34640991  .00000345  00000-0  39786-4 0  9990,2 53263  53.2189 101.8513 0001647  58.7200 301.3953 15.08840602 22392,6917.879,95.438,540.883,538.604,0.0
53263.0,STARLINK-4130,PAYLOAD,2022-12-13 17:51:09,15.08839388,0.0001844,53.2188,100.0709,47.5368,312.578,-7.3805e-05,-1.463e-05,0.0,0 STARLINK-4130,1 53263U 22086X   22347.74385542 -.00001463  00000-0 -73805-4 0  9996,2 53263  53.2188 100.0709 0001844  47.5368 312.5780 15.08839388 22637,6917.882,95.438,541.023,538.472,0.0
53263.0,STARLINK-4130,PAYLOAD,2022-12-14 11:20:23,15.08857397,0.0001654,53.2197,96.7996,37.1927,322.918,-0.0002214,-3.812e-05,0.0,0 STARLINK-4130,1 53263U 22086X   22348.47248902 -.00003812  00000-0 -22140-3 0  9990,2 53263  53.2197  96.7996 0001654  37.1927 322.9180 15.08857397 22742,6917.8269999999975,95.436,540.836,538.548,0.0
53263.0,STARLINK-4130,PAYLOAD,2022-12-14 16:06:32,15.08835014,0.0001771999999999,53.22,95.9077,42.3717,317.7412,0.00010648,1.407e-05,0.0,0 STARLINK-4130,1 53263U 22086X   22348.67121392  .00001407  00000-0  10648-3 0  9991,2 53263  53.2200  95.9077 0001772  42.3717 317.7412 15.08835014 22779,6917.896,95.438,540.986,538.535,0.0
53263.0,STARLINK-4130,PAYLOAD,2022-12-15 08:00:24,15.08839016,0.0001789,53.2204,92.9349,42.3634,317.7497,7.701600000000001e-05,9.38e-06,0.0,0 STARLINK-4130,1 53263U 22086X   22349.33361172  .00000938  00000-0  77016-4 0  9998,2 53263  53.2204  92.9349 0001789  42.3634 317.7497 15.08839016 22698,6917.8830000000025,95.438,540.986,538.511,0.0
53263.0,STARLINK-4130,PAYLOAD,2022-12-15 12:46:33,15.08843603,0.000189,53.2214,92.0431,46.4047,313.7102,0.0001445,2.013e-05,0.0,0 STARLINK-4130,1 53263U 22086X   22349.53232709  .00002013  00000-0  14450-3 0  9991,2 53263  53.2214  92.0431 0001890  46.4047 313.7102 15.08843603 22908,6917.869000000002,95.437,541.0419999999998,538.427,0.0
53263.0,STARLINK-4130,PAYLOAD,2022-12-15 14:21:55,15.08846744,0.0001901,53.2204,91.7451,44.7467,315.3679,0.00017155,2.444e-05,0.0,0 STARLINK-4130,1 53263U 22086X   22349.59856448  .00002444  00000-0  17155-3 0  9992,2 53263  53.2204  91.7451 0001901  44.7467 315.3679 15.08846744 22732,6917.86,95.437,541.04,538.41,0.0
53263.0,STARLINK-4130,PAYLOAD,2022-12-15 19:08:05,15.08844004,0.0001946,53.2197,90.8531,42.2659,317.8483,0.00014499,2.02e-05,0.0,0 STARLINK-4130,1 53263U 22086X   22349.79728734  .00002020  00000-0  14499-3 0  9998,2 53263  53.2197  90.8531 0001946  42.2659 317.8483 15.08844004 22947,6917.868,95.437,541.0790000000002,538.387,0.0
53263.0,STARLINK-4130,PAYLOAD,2022-12-16 06:15:48,15.08838241,0.0001951,53.2204,88.7714,45.0097,315.1053,3.842e-05,3.23e-06,0.0,0 STARLINK-4130,1 53263U 22086X   22350.26097406  .00000323  00000-0  38420-4 0  9992,2 53263  53.2204  88.7714 0001951  45.0097 315.1053 15.08838241 22836,6917.886,95.438,541.1,538.401,0.0
53263.0,STARLINK-4130,PAYLOAD,2022-12-16 12:37:20,15.08834701,0.0001718,53.2197,87.5822,39.6665,320.4452,8.628100000000001e-05,1.085e-05,0.0,0 STARLINK-4130,1 53263U 22086X   22350.52593392  .00001085  00000-0  86281-4 0  9990,2 53263  53.2197  87.5822 0001718  39.6665 320.4452 15.08834701 23059,6917.897,95.438,540.95,538.573,0.0
53263.0,STARLINK-4130,PAYLOAD,2022-12-16 15:48:07,15.08830271,0.0001774,53.219,86.9861,44.3875,315.7259,-2.0165e-05,-6.09e-06,0.0,0 STARLINK-4130,1 53263U 22086X   22350.65842049 -.00000609  00000-0 -20165-4 0  9992,2 53263  53.2190  86.9861 0001774  44.3875 315.7259 15.08830271 22897,6917.91,95.438,541.002,538.548,0.0
53263.0,STARLINK-4130,PAYLOAD,2022-12-16 23:45:02,15.08836988,0.0001952,53.2201,85.5009,43.4832,316.6314,-2.4926e-05,-6.85e-06,0.0,0 STARLINK-4130,1 53263U 22086X   22350.98961759 -.00000685  00000-0 -24926-4 0  9991,2 53263  53.2201  85.5009 0001952  43.4832 316.6314 15.08836988 22949,6917.89,95.438,541.105,538.404,0.0
53263.0,STARLINK-4130,PAYLOAD,2022-12-17 12:28:08,15.08835321,0.0002039,53.2201,83.1218,45.9719,314.1441,2.7986e-05,1.57e-06,0.0,0 STARLINK-4130,1 53263U 22086X   22351.51953930  .00000157  00000-0  27986-4 0  9994,2 53263  53.2201  83.1218 0002039  45.9719 314.1441 15.08835321 23207,6917.895,95.438,541.17,538.349,0.0
53263.0,STARLINK-4130,PAYLOAD,2022-12-17 14:03:31,15.08840299,0.0002078,53.2202,82.8241,47.7791,312.3378,-9.8729e-06,-4.45e-06,0.0,0 STARLINK-4130,1 53263U 22086X   22351.58577739 -.00000445  00000-0 -98729-5 0  9996,2 53263  53.2202  82.8241 0002078  47.7791 312.3378 15.08840299 23213,6917.879,95.438,541.182,538.307,0.0
53263.0,STARLINK-4130,PAYLOAD,2022-12-18 12:18:55,15.08833333,0.000203,53.2204,78.6618,42.9031,317.2119,3.5771e-05,2.81e-06,0.0,0 STARLINK-4130,1 53263U 22086X   22352.51314562  .00000281  00000-0  35771-4 0  9996,2 53263  53.2204  78.6618 0002030  42.9031 317.2119 15.08833333 23171,6917.901,95.438,541.17,538.361,0.0
53263.0,STARLINK-4130,PAYLOAD,2022-12-18 13:54:19,15.08831667,0.0001937,53.2209,78.3653,39.2787,320.8346,3.8882e-05,3.31e-06,0.0,0 STARLINK-4130,1 53263U 22086X   22352.57938673  .00000331  00000-0  38882-4 0  9999,2 53263  53.2209  78.3653 0001937  39.2787 320.8346 15.08831667 23365,6917.906,95.438,541.111,538.431,0.0
53263.0,STARLINK-4130,PAYLOAD,2022-12-18 23:26:38,15.08829815,0.0002231,53.221,76.5813,41.002,319.1139,0.00014738,2.057e-05,0.0,0 STARLINK-4130,1 53263U 22086X   22352.97682941  .00002057  00000-0  14738-3 0  9997,2 53263  53.2210  76.5813 0002231  41.0020 319.1139 15.08829815 23424,6917.9119999999975,95.438,541.32,538.2330000000002,0.0
53263.0,STARLINK-4130,PAYLOAD,2022-12-19 16:55:52,15.08844015,0.0002108,53.2198,73.31,37.5003,322.6136,0.00026488,3.929999999999999e-05,0.0,0 STARLINK-4130,1 53263U 22086X   22353.70546522  .00003930  00000-0  26488-3 0  9999,2 53263  53.2198  73.3100 0002108  37.5003 322.6136 15.08844015 23534,6917.868,95.437,541.191,538.275,0.0
53263.0,STARLINK-4130,PAYLOAD,2022-12-20 12:00:28,15.088596,0.0002067,53.2201,69.7412,34.3771,325.7354,0.00039935,6.077e-05,0.0,0 STARLINK-4130,1 53263U 22086X   22354.50033410  .00006077  00000-0  39935-3 0  9991,2 53263  53.2201  69.7412 0002067  34.3771 325.7354 15.08859600 23470,6917.82,95.436,541.115,538.256,0.0
53263.0,STARLINK-4130,PAYLOAD,2022-12-20 16:46:38,15.08852671,0.0002199,53.2199,68.8494,32.7303,327.3826,0.00021158,3.082e-05,0.0,0 STARLINK-4130,1 53263U 22086X   22354.69905665  .00003082  00000-0  21158-3 0  9992,2 53263  53.2199  68.8494 0002199  32.7303 327.3826 15.08852671 23502,6917.842,95.437,541.2280000000002,538.185,0.0
53263.0,STARLINK-4130,PAYLOAD,2022-12-21 11:51:16,15.08830875,0.0002176,53.2196,65.2817,35.9528,324.161,-0.0001964,-3.412e-05,0.0,0 STARLINK-4130,1 53263U 22086X   22355.49394392 -.00003412  00000-0 -19640-3 0  9992,2 53263  53.2196  65.2817 0002176  35.9528 324.1610 15.08830875 23629,6917.908,95.438,541.279,538.268,0.0
53263.0,STARLINK-4130,PAYLOAD,2022-12-21 16:37:27,15.08821118,0.0002179,53.2199,64.3899,33.4644,326.6485,-0.00011549,-2.125e-05,0.0,0 STARLINK-4130,1 53263U 22086X   22355.69268048 -.00002125  00000-0 -11549-3 0  9992,2 53263  53.2199  64.3899 0002179  33.4644 326.6485 15.08821118 23657,6917.938,95.439,541.311,538.2959999999998,0.0
53263.0,STARLINK-4130,PAYLOAD,2022-12-22 11:42:04,15.08838725,0.0002113,53.2198,60.8216,31.4396,328.6722,-6.7789e-05,-1.367e-05,0.0,0 STARLINK-4130,1 53263U 22086X   22356.48755288 -.00001367  00000-0 -67789-4 0  9992,2 53263  53.2198  60.8216 0002113  31.4396 328.6722 15.08838725 23771,6917.884,95.438,541.211,538.288,0.0
53263.0,STARLINK-4130,PAYLOAD,2022-12-22 16:28:13,15.088420800000002,0.0002123,53.22,59.9292,32.9634,327.149,-2.2142e-05,-6.41e-06,0.0,0 STARLINK-4130,1 53263U 22086X   22356.68627035 -.00000641  00000-0 -22142-4 0  9990,2 53263  53.2200  59.9292 0002123  32.9634 327.1490 15.08842080 23988,6917.874,95.437,541.2080000000002,538.27,0.0
53263.0,STARLINK-4130,PAYLOAD,2022-12-23 09:57:28,15.08835275,0.0002195,53.2195,56.6586,32.1685,327.9441,0.0002401,3.535e-05,0.0,0 STARLINK-4130,1 53263U 22086X   22357.41491656  .00003535  00000-0  24010-3 0  9998,2 53263  53.2195  56.6586 0002195  32.1685 327.9441 15.08835275 24093,6917.895,95.438,541.278,538.241,0.0
53263.0,STARLINK-4130,PAYLOAD,2022-12-23 16:19:01,15.0883161,0.0002209,53.2195,55.4693,32.5341,327.5787,0.00016855,2.395e-05,0.0,0 STARLINK-4130,1 53263U 22086X   22357.67988056  .00002395  00000-0  16855-3 0  9992,2 53263  53.2195  55.4693 0002209  32.5341 327.5787 15.08831610 24131,6917.906,95.438,541.299,538.243,0.0
53263.0,STARLINK-4130,PAYLOAD,2022-12-24 05:02:06,15.08839215,0.0002216,53.2192,53.0908,32.8544,327.2586,0.00020497,2.975e-05,0.0,0 STARLINK-4130,1 53263U 22086X   22358.20979985  .00002975  00000-0  20497-3 0  9994,2 53263  53.2192  53.0908 0002216  32.8544 327.2586 15.08839215 24219,6917.8830000000025,95.438,541.281,538.215,0.0
53263.0,STARLINK-4130,PAYLOAD,2022-12-24 12:59:02,15.08845557,0.0002233,53.2191,51.604,34.0309,326.0826,0.00022541,3.302e-05,0.0,0 STARLINK-4130,1 53263U 22086X   22358.54099721  .00003302  00000-0  22541-3 0  9999,2 53263  53.2191  51.6040 0002233  34.0309 326.0826 15.08845557 24086,6917.863,95.437,541.273,538.184,0.0
